[{"OBJECT_NAME":"STARLINK-36866","OBJECT_ID":"2026-035S","EPOCH":"2026-03-02T22:00:01.999584","MEAN_MOTION":16.03170049,"ECCENTRICITY":9.881e-5,"INCLINATION":97.2766,"RA_OF_ASC_NODE":353.7272,"ARG_OF_PERICENTER":90.668,"MEAN_ANOMALY":159.0565,"EPHEMERIS_TYPE":0,"CLASSIFICATION_TYPE":"U","NORAD_CAT_ID":67895,"ELEMENT_SET_NO":999,"REV_AT_EPOCH":266,"BSTAR":-0.0015778801,"MEAN_MOTION_DOT":-0.00957332,"MEAN_MOTION_DDOT":0.00031357134},{"OBJECT_NAME":"STARLINK-36877","OBJECT_ID":"2026-035T","EPOCH":"2026-03-02T22:00:01.999584","MEAN_MOTION":16.02901791,"ECCENTRICITY":9.903e-5,"INCLINATION":97.2768,"RA_OF_ASC_NODE":353.7241,"ARG_OF_PERICENTER":94.4162,"MEAN_ANOMALY":148.1555,"EPHEMERIS_TYPE":0,"CLASSIFICATION_TYPE":"U","NORAD_CAT_ID":67896,"ELEMENT_SET_NO":999,"REV_AT_EPOCH":266,"BSTAR":-0.0015853295,"MEAN_MOTION_DOT":-0.00946883,"MEAN_MOTION_DDOT":0.00030629033},{"OBJECT_NAME":"STARLINK-36870","OBJECT_ID":"2026-035U","EPOCH":"2026-03-02T22:00:01.999584","MEAN_MOTION":16.03334555,"ECCENTRICITY":9.895e-5,"INCLINATION":97.2762,"RA_OF_ASC_NODE":353.7286,"ARG_OF_PERICENTER":111.8555,"MEAN_ANOMALY":141.7743,"EPHEMERIS_TYPE":0,"CLASSIFICATION_TYPE":"U","NORAD_CAT_ID":67897,"ELEMENT_SET_NO":999,"REV_AT_EPOCH":266,"BSTAR":-0.0016165439,"MEAN_MOTION_DOT":-0.00990073,"MEAN_MOTION_DDOT":0.00033436623},{"OBJECT_NAME":"STARLINK-36810","OBJECT_ID":"2026-035V","EPOCH":"2026-03-02T22:00:01.999584","MEAN_MOTION":16.03464957,"ECCENTRICITY":8.971e-5,"INCLINATION":97.276,"RA_OF_ASC_NODE":353.7299,"ARG_OF_PERICENTER":108.4044,"MEAN_ANOMALY":148.3078,"EPHEMERIS_TYPE":0,"CLASSIFICATION_TYPE":"U","NORAD_CAT_ID":67898,"ELEMENT_SET_NO":999,"REV_AT_EPOCH":266,"BSTAR":-0.0016421543,"MEAN_MOTION_DOT":-0.01013323,"MEAN_MOTION_DDOT":0.00034958536},{"OBJECT_NAME":"STARLINK-36878","OBJECT_ID":"2026-035W","EPOCH":"2026-03-02T22:00:01.999584","MEAN_MOTION":16.03698145,"ECCENTRICITY":0.0001038,"INCLINATION":97.2758,"RA_OF_ASC_NODE":353.7326,"ARG_OF_PERICENTER":114.3459,"MEAN_ANOMALY":148.4875,"EPHEMERIS_TYPE":0,"CLASSIFICATION_TYPE":"U","NORAD_CAT_ID":67899,"ELEMENT_SET_NO":999,"REV_AT_EPOCH":266,"BSTAR":-0.0017469749,"MEAN_MOTION_DOT":-0.01092267,"MEAN_MOTION_DDOT":0.00040273813},{"OBJECT_NAME":"STARLINK-36361","OBJECT_ID":"2026-035X","EPOCH":"2026-03-02T22:00:01.999584","MEAN_MOTION":16.03837944,"ECCENTRICITY":0.0001014,"INCLINATION":97.2757,"RA_OF_ASC_NODE":353.7338,"ARG_OF_PERICENTER":123.1436,"MEAN_ANOMALY":143.046,"EPHEMERIS_TYPE":0,"CLASSIFICATION_TYPE":"U","NORAD_CAT_ID":67900,"ELEMENT_SET_NO":999,"REV_AT_EPOCH":266,"BSTAR":-0.0017524643,"MEAN_MOTION_DOT":-0.01104704,"MEAN_MOTION_DDOT":0.00041193906},{"OBJECT_NAME":"STARLINK-36336","OBJECT_ID":"2026-035Y","EPOCH":"2026-03-02T22:00:01.999584","MEAN_MOTION":16.04166794,"ECCENTRICITY":9.065e-5,"INCLINATION":97.2759,"RA_OF_ASC_NODE":353.7386,"ARG_OF_PERICENTER":114.5406,"MEAN_ANOMALY":161.8289,"EPHEMERIS_TYPE":0,"CLASSIFICATION_TYPE":"U","NORAD_CAT_ID":67901,"ELEMENT_SET_NO":999,"REV_AT_EPOCH":271,"BSTAR":-0.0017353366,"MEAN_MOTION_DOT":-0.01115417,"MEAN_MOTION_DDOT":0.00042099767},{"OBJECT_NAME":"STARLINK-36876","OBJECT_ID":"2026-035Z","EPOCH":"2026-03-02T22:00:01.999584","MEAN_MOTION":16.03920972,"ECCENTRICITY":9.689e-5,"INCLINATION":97.2761,"RA_OF_ASC_NODE":353.7359,"ARG_OF_PERICENTER":100.6881,"MEAN_ANOMALY":168.4291,"EPHEMERIS_TYPE":0,"CLASSIFICATION_TYPE":"U","NORAD_CAT_ID":67902,"ELEMENT_SET_NO":999,"REV_AT_EPOCH":266,"BSTAR":-0.001764723,"MEAN_MOTION_DOT":-0.01117803,"MEAN_MOTION_DDOT":0.0004214357},{"OBJECT_NAME":"STARLINK-36257","OBJECT_ID":"2026-035AA","EPOCH":"2026-03-02T22:00:01.999584","MEAN_MOTION":16.04023963,"ECCENTRICITY":9.055e-5,"INCLINATION":97.2758,"RA_OF_ASC_NODE":353.7365,"ARG_OF_PERICENTER":96.5414,"MEAN_ANOMALY":175.652,"EPHEMERIS_TYPE":0,"CLASSIFICATION_TYPE":"U","NORAD_CAT_ID":67903,"ELEMENT_SET_NO":999,"REV_AT_EPOCH":271,"BSTAR":-0.0017546464,"MEAN_MOTION_DOT":-0.01118241,"MEAN_MOTION_DDOT":0.0004222567}]
